{
  "type": "FeatureCollection",
  "features": [
    {
      "type": "Feature",
      "geometry": { "type": "Point", "coordinates": [116.3974, 39.9042] },
      "properties": {
        "name": "天安门广场",
        "category": "景点名胜",
        "address": "北京市东城区长安街",
        "description": "世界上最大的城市中心广场，中国国家象征。",
        "rating": "5A",
        "hours": "全天开放"
      }
    },
    {
      "type": "Feature",
      "geometry": { "type": "Point", "coordinates": [116.3972, 39.9163] },
      "properties": {
        "name": "故宫博物院",
        "category": "景点名胜",
        "address": "北京市东城区景山前街4号",
        "description": "明清两代皇家宫殿，世界文化遗产，中国最大的古代文化艺术博物馆。",
        "rating": "5A",
        "hours": "08:30-17:00（旺季）"
      }
    },
    {
      "type": "Feature",
      "geometry": { "type": "Point", "coordinates": [116.2755, 39.9999] },
      "properties": {
        "name": "颐和园",
        "category": "景点名胜",
        "address": "北京市海淀区新建宫门路19号",
        "description": "清代皇家园林，中国古典园林之首，世界文化遗产。",
        "rating": "5A",
        "hours": "06:30-18:00"
      }
    },
    {
      "type": "Feature",
      "geometry": { "type": "Point", "coordinates": [116.0196, 40.3544] },
      "properties": {
        "name": "八达岭长城",
        "category": "景点名胜",
        "address": "北京市延庆区G6京藏高速58号出口",
        "description": "万里长城的精华段，世界文化遗产，「不到长城非好汉」。",
        "rating": "5A",
        "hours": "06:30-19:00（旺季）"
      }
    },
    {
      "type": "Feature",
      "geometry": { "type": "Point", "coordinates": [116.4066, 39.8822] },
      "properties": {
        "name": "天坛公园",
        "category": "景点名胜",
        "address": "北京市东城区天坛内东里7号",
        "description": "明清皇帝祭天场所，祈年殿为北京标志性建筑。",
        "rating": "5A",
        "hours": "06:00-22:00"
      }
    },
    {
      "type": "Feature",
      "geometry": { "type": "Point", "coordinates": [116.3904, 39.9917] },
      "properties": {
        "name": "国家体育场（鸟巢）",
        "category": "景点名胜",
        "address": "北京市朝阳区国家体育场南路1号",
        "description": "2008年北京奥运会主体育场，现代建筑奇观。",
        "rating": "5A",
        "hours": "09:00-17:30"
      }
    },
    {
      "type": "Feature",
      "geometry": { "type": "Point", "coordinates": [116.3843, 39.9914] },
      "properties": {
        "name": "国家游泳中心（水立方）",
        "category": "景点名胜",
        "address": "北京市朝阳区天辰东路11号",
        "description": "2008年奥运会游泳场馆，2022年冬奥会冰壶赛场。",
        "rating": "5A",
        "hours": "09:00-18:00"
      }
    },
    {
      "type": "Feature",
      "geometry": { "type": "Point", "coordinates": [116.6152, 40.0530] },
      "properties": {
        "name": "北京首都国际机场T3",
        "category": "交通枢纽",
        "address": "北京市顺义区",
        "description": "中国最繁忙的国际机场之一，T3航站楼为世界最大单体航站楼。",
        "rating": "",
        "hours": "24小时运营"
      }
    },
    {
      "type": "Feature",
      "geometry": { "type": "Point", "coordinates": [116.4274, 39.9047] },
      "properties": {
        "name": "北京站",
        "category": "交通枢纽",
        "address": "北京市东城区毛家湾胡同甲13号",
        "description": "北京四大铁路客运站之一，始建于1901年。",
        "rating": "",
        "hours": "24小时运营"
      }
    },
    {
      "type": "Feature",
      "geometry": { "type": "Point", "coordinates": [116.3790, 39.8650] },
      "properties": {
        "name": "北京南站",
        "category": "交通枢纽",
        "address": "北京市丰台区永外大街车站路",
        "description": "京津城际、京沪高铁始发站，北京最大的高铁站。",
        "rating": "",
        "hours": "24小时运营"
      }
    },
    {
      "type": "Feature",
      "geometry": { "type": "Point", "coordinates": [116.4107, 39.9143] },
      "properties": {
        "name": "王府井小吃街",
        "category": "餐饮美食",
        "address": "北京市东城区王府井大街",
        "description": "北京最著名的美食街，汇聚老北京传统小吃。",
        "rating": "4.5",
        "hours": "10:00-22:00"
      }
    },
    {
      "type": "Feature",
      "geometry": { "type": "Point", "coordinates": [116.4230, 39.9386] },
      "properties": {
        "name": "簋街",
        "category": "餐饮美食",
        "address": "北京市东城区东直门内大街",
        "description": "北京夜宵第一街，麻辣小龙虾发源地。",
        "rating": "4.3",
        "hours": "17:00-04:00"
      }
    },
    {
      "type": "Feature",
      "geometry": { "type": "Point", "coordinates": [116.4551, 39.9322] },
      "properties": {
        "name": "三里屯太古里",
        "category": "购物商圈",
        "address": "北京市朝阳区三里屯路19号",
        "description": "北京时尚潮流地标，国际品牌旗舰店聚集地。",
        "rating": "4.6",
        "hours": "10:00-22:00"
      }
    },
    {
      "type": "Feature",
      "geometry": { "type": "Point", "coordinates": [116.4605, 39.9087] },
      "properties": {
        "name": "国贸商城",
        "category": "购物商圈",
        "address": "北京市朝阳区建国门外大街1号",
        "description": "北京CBD核心商业综合体，高端购物中心。",
        "rating": "4.5",
        "hours": "10:00-21:30"
      }
    },
    {
      "type": "Feature",
      "geometry": { "type": "Point", "coordinates": [116.3754, 39.9115] },
      "properties": {
        "name": "西单大悦城",
        "category": "购物商圈",
        "address": "北京市西城区西单北大街131号",
        "description": "西单商圈核心商场，年轻时尚消费地标。",
        "rating": "4.4",
        "hours": "10:00-22:00"
      }
    },
    {
      "type": "Feature",
      "geometry": { "type": "Point", "coordinates": [116.3269, 39.9999] },
      "properties": {
        "name": "清华大学",
        "category": "文化教育",
        "address": "北京市海淀区清华园",
        "description": "中国顶尖高等学府，世界一流大学，校园为清代皇家园林遗址。",
        "rating": "",
        "hours": "校园开放（需预约）"
      }
    },
    {
      "type": "Feature",
      "geometry": { "type": "Point", "coordinates": [116.3056, 39.9963] },
      "properties": {
        "name": "北京大学",
        "category": "文化教育",
        "address": "北京市海淀区颐和园路5号",
        "description": "中国最高学府之一，燕园风景如画。",
        "rating": "",
        "hours": "校园开放（需预约）"
      }
    },
    {
      "type": "Feature",
      "geometry": { "type": "Point", "coordinates": [116.4951, 39.9842] },
      "properties": {
        "name": "798艺术区",
        "category": "文化教育",
        "address": "北京市朝阳区酒仙桥路4号",
        "description": "由旧工厂改造的现代艺术区，北京文化创意产业地标。",
        "rating": "4.5",
        "hours": "10:00-18:00（各画廊不同）"
      }
    },
    {
      "type": "Feature",
      "geometry": { "type": "Point", "coordinates": [116.3925, 39.9033] },
      "properties": {
        "name": "国家大剧院",
        "category": "文化教育",
        "address": "北京市西城区西长安街2号",
        "description": "由保罗·安德鲁设计的蛋形建筑，世界级表演艺术中心。",
        "rating": "5A",
        "hours": "09:00-17:00（参观）"
      }
    },
    {
      "type": "Feature",
      "geometry": { "type": "Point", "coordinates": [116.4038, 39.9380] },
      "properties": {
        "name": "南锣鼓巷",
        "category": "景点名胜",
        "address": "北京市东城区南锣鼓巷",
        "description": "北京最古老的胡同街区之一，文艺小店与老北京风情交融。",
        "rating": "4.3",
        "hours": "全天开放"
      }
    }
  ]
}
