{
  "type": "FeatureCollection",
  "features": [
    {
      "type": "Feature",
      "properties": { "name": "东城区", "pop": 70.4, "area": 41.84, "gdp": 3386 },
      "geometry": { "type": "Polygon", "coordinates": [[[116.38,39.88],[116.45,39.88],[116.45,39.93],[116.46,39.96],[116.43,39.96],[116.38,39.95],[116.36,39.93],[116.37,39.90],[116.38,39.88]]] }
    },
    {
      "type": "Feature",
      "properties": { "name": "西城区", "pop": 110.0, "area": 50.70, "gdp": 5011 },
      "geometry": { "type": "Polygon", "coordinates": [[[116.33,39.88],[116.37,39.88],[116.37,39.90],[116.38,39.93],[116.39,39.96],[116.36,39.97],[116.33,39.96],[116.32,39.93],[116.31,39.90],[116.33,39.88]]] }
    },
    {
      "type": "Feature",
      "properties": { "name": "朝阳区", "pop": 345.0, "area": 470.8, "gdp": 8396 },
      "geometry": { "type": "Polygon", "coordinates": [[[116.42,39.90],[116.46,39.90],[116.47,39.95],[116.50,39.98],[116.55,39.98],[116.62,39.95],[116.68,39.92],[116.66,39.88],[116.57,39.86],[116.52,39.86],[116.48,39.85],[116.43,39.86],[116.42,39.88],[116.42,39.90]]] }
    },
    {
      "type": "Feature",
      "properties": { "name": "丰台区", "pop": 202.0, "area": 305.8, "gdp": 2187 },
      "geometry": { "type": "Polygon", "coordinates": [[[116.23,39.77],[116.28,39.77],[116.37,39.79],[116.43,39.83],[116.42,39.86],[116.43,39.89],[116.37,39.87],[116.28,39.85],[116.24,39.82],[116.21,39.80],[116.18,39.79],[116.23,39.77]]] }
    },
    {
      "type": "Feature",
      "properties": { "name": "石景山区", "pop": 56.8, "area": 84.38, "gdp": 971 },
      "geometry": { "type": "Polygon", "coordinates": [[[116.15,39.87],[116.23,39.87],[116.25,39.90],[116.24,39.93],[116.20,39.94],[116.16,39.93],[116.13,39.90],[116.15,39.87]]] }
    },
    {
      "type": "Feature",
      "properties": { "name": "海淀区", "pop": 313.0, "area": 430.8, "gdp": 10207 },
      "geometry": { "type": "Polygon", "coordinates": [[[116.20,39.94],[116.24,39.93],[116.28,39.93],[116.34,39.95],[116.38,39.98],[116.40,40.02],[116.38,40.07],[116.33,40.06],[116.28,40.04],[116.23,39.99],[116.20,39.97],[116.19,39.94],[116.20,39.94]]] }
    },
    {
      "type": "Feature",
      "properties": { "name": "门头沟区", "pop": 35.3, "area": 1450.7, "gdp": 277 },
      "geometry": { "type": "Polygon", "coordinates": [[[115.75,39.82],[115.96,39.84],[116.15,39.88],[116.18,39.92],[116.20,39.95],[116.19,39.99],[116.12,40.02],[115.98,40.05],[115.82,40.03],[115.73,39.97],[115.70,39.93],[115.72,39.88],[115.75,39.82]]] }
    },
    {
      "type": "Feature",
      "properties": { "name": "房山区", "pop": 119.0, "area": 1989.5, "gdp": 873 },
      "geometry": { "type": "Polygon", "coordinates": [[[115.60,39.55],[115.80,39.58],[116.05,39.64],[116.17,39.70],[116.20,39.75],[116.23,39.80],[116.18,39.80],[115.95,39.78],[115.75,39.75],[115.60,39.70],[115.53,39.65],[115.55,39.60],[115.60,39.55]]] }
    },
    {
      "type": "Feature",
      "properties": { "name": "通州区", "pop": 184.0, "area": 906.3, "gdp": 1302 },
      "geometry": { "type": "Polygon", "coordinates": [[[116.53,39.72],[116.68,39.76],[116.78,39.80],[116.88,39.85],[116.84,39.90],[116.78,39.92],[116.66,39.88],[116.57,39.86],[116.53,39.82],[116.50,39.76],[116.53,39.72]]] }
    },
    {
      "type": "Feature",
      "properties": { "name": "顺义区", "pop": 133.0, "area": 1021.0, "gdp": 2193 },
      "geometry": { "type": "Polygon", "coordinates": [[[116.58,40.00],[116.70,40.02],[116.82,40.06],[116.95,40.12],[116.98,40.20],[116.90,40.28],[116.77,40.30],[116.65,40.25],[116.58,40.18],[116.53,40.10],[116.56,40.04],[116.58,40.00]]] }
    },
    {
      "type": "Feature",
      "properties": { "name": "昌平区", "pop": 228.0, "area": 1343.5, "gdp": 1402 },
      "geometry": { "type": "Polygon", "coordinates": [[[116.10,40.05],[116.28,40.07],[116.43,40.12],[116.55,40.18],[116.55,40.28],[116.48,40.37],[116.35,40.35],[116.22,40.30],[116.10,40.23],[116.05,40.15],[116.07,40.08],[116.10,40.05]]] }
    },
    {
      "type": "Feature",
      "properties": { "name": "大兴区", "pop": 199.0, "area": 1036.3, "gdp": 1472 },
      "geometry": { "type": "Polygon", "coordinates": [[[116.17,39.50],[116.35,39.58],[116.52,39.65],[116.57,39.72],[116.53,39.76],[116.48,39.73],[116.35,39.68],[116.22,39.60],[116.15,39.55],[116.17,39.50]]] }
    },
    {
      "type": "Feature",
      "properties": { "name": "怀柔区", "pop": 41.0, "area": 2128.7, "gdp": 463 },
      "geometry": { "type": "Polygon", "coordinates": [[[116.25,40.20],[116.52,40.25],[116.70,40.32],[116.85,40.42],[116.78,40.55],[116.68,40.70],[116.55,40.75],[116.40,40.68],[116.28,40.55],[116.22,40.42],[116.20,40.32],[116.25,40.20]]] }
    },
    {
      "type": "Feature",
      "properties": { "name": "平谷区", "pop": 45.5, "area": 1075.0, "gdp": 354 },
      "geometry": { "type": "Polygon", "coordinates": [[[116.88,40.03],[117.10,40.08],[117.30,40.15],[117.32,40.25],[117.22,40.35],[117.10,40.32],[116.95,40.28],[116.85,40.20],[116.84,40.12],[116.88,40.03]]] }
    },
    {
      "type": "Feature",
      "properties": { "name": "密云区", "pop": 52.0, "area": 2229.5, "gdp": 402 },
      "geometry": { "type": "Polygon", "coordinates": [[[116.60,40.20],[116.80,40.28],[117.00,40.35],[117.15,40.46],[117.10,40.58],[116.95,40.65],[116.78,40.62],[116.63,40.52],[116.55,40.38],[116.52,40.27],[116.60,40.20]]] }
    },
    {
      "type": "Feature",
      "properties": { "name": "延庆区", "pop": 35.6, "area": 1993.8, "gdp": 219 },
      "geometry": { "type": "Polygon", "coordinates": [[[115.70,40.27],[115.93,40.32],[116.15,40.38],[116.28,40.48],[116.25,40.58],[116.18,40.65],[116.00,40.63],[115.80,40.55],[115.68,40.45],[115.65,40.38],[115.68,40.30],[115.70,40.27]]] }
    }
  ]
}
